ONEWEB-0361             
1 49287U 21090J   24027.79424897 -.00000224  00000+0 -58304-3 0  9999
2 49287  87.9167  87.8973 0002037  96.2888 263.8477 13.20768393115270
ONEWEB-0362             
1 49288U 21090K   24027.81482526  .00000085  00000+0  17889-3 0  9992
2 49288  87.9199 118.4449 0001986  94.1376 265.9984 13.19724887111984
ONEWEB-0363             
1 49289U 21090L   24027.65851504  .00000064  00000+0  12435-3 0  9990
2 49289  87.9166  87.9195 0001564 111.3639 248.7661 13.20770655115265
ONEWEB-0364             
1 49290U 21090M   24027.69638781  .00000072  00000+0  14566-3 0  9992
2 49290  87.9166  87.9344 0002059 104.2807 255.8555 13.20770776116403
ONEWEB-0365             
1 49291U 21090N   24027.74848129  .00000061  00000+0  12034-3 0  9994
2 49291  87.9193 118.4479 0001903 100.9092 259.2254 13.19724190111483
ONEWEB-0366             
1 49292U 21090P   24027.65889473  .00000314  00000+0  81238-3 0  9995
2 49292  87.8963 103.1959 0001908 107.8973 252.2365 13.14502019113062
ONEWEB-0367             
1 49293U 21090Q   24027.65693468  .00000116  00000+0  25377-3 0  9995
2 49293  87.9165  87.9138 0002131 106.1556 253.9812 13.20770608114787
ONEWEB-0368             
1 49294U 21090R   24027.70586011  .00000013  00000+0 -11262-5 0  9994
2 49294  87.9166  87.9330 0002312 122.7292 237.4064 13.20770525115948
